{"spkid": "50031724", "covariance": {"labels": ["e", "q", "tp", "node", "peri", "i"], "elements": [{"label": "e", "name": "e", "sigma": 4.40110441208975e-08, "title": "eccentricity", "value": ".5824743348505841", "units": null}, {"label": "q", "sigma": 1.06063804625261e-07, "name": "q", "title": "perihelion distance", "value": "1.005805029192536", "units": "au"}, {"sigma": 2.5980694623519e-05, "name": "tp", "value": "2455712.519652037107", "title": "time of perihelion passage", "units": "TDB", "label": "tp"}, {"label": "node", "title": "longitude of the ascending node", "value": "310.4104531571211", "units": "deg", "sigma": 8.11773332671307e-06, "name": "om"}, {"label": "peri", "name": "w", "sigma": 3.18377864389196e-05, "units": "deg", "title": "argument of perihelion", "value": "201.3947036783789"}, {"sigma": 1.44841805466888e-05, "name": "i", "units": "deg", "title": "inclination", "value": "14.71862201832223", "label": "i"}], "data": [["1.936972004611586E-15", "-4.667254502200648E-15", "8.292599654910112E-13", "1.176700854025986E-13", "1.01183581938008E-12", "-1.459649166381217E-13"], ["-4.667254502200648E-15", "1.12495306515856E-14", "-1.969671011135294E-12", "-2.888205971869186E-13", "-2.404479775247824E-12", "3.730060825791302E-13"], ["8.292599654910112E-13", "-1.969671011135294E-12", "6.749964931205508E-10", "1.558639708871971E-11", "7.989188442944746E-10", "5.676405529291053E-11"], ["1.176700854025986E-13", "-2.888205971869186E-13", "1.558639708871971E-11", "6.589759436362802E-11", "-3.264933031255351E-11", "-3.153958441232112E-11"], ["1.01183581938008E-12", "-2.404479775247824E-12", "7.989188442944746E-10", "-3.264933031255351E-11", "1.013644645330256E-9", "6.918846629661831E-11"], ["-1.459649166381217E-13", "3.730060825791302E-13", "5.676405529291053E-11", "-3.153958441232112E-11", "6.918846629661831E-11", "2.097914861090792E-10"]], "epoch": "2455826.5"}, "elements": [{"label": "e", "name": "e", "sigma": "4.0793E-8", "units": null, "title": "eccentricity", "value": ".5865056683035171"}, {"label": "a", "value": "2.40418254036314", "title": "semi-major axis", "units": "au", "sigma": "8.0613E-9", "name": "a"}, {"label": "q", "sigma": "9.6121E-8", "name": "q", "title": "perihelion distance", "value": ".994115852803809", "units": "au"}, {"title": "inclination; angle with respect to x-y ecliptic plane", "value": "14.74474534558794", "units": "deg", "sigma": "1.4518E-5", "name": "i", "label": "i"}, {"label": "node", "units": "deg", "value": "310.3306415730331", "title": "longitude of the ascending node", "name": "om", "sigma": "8.1168E-6"}, {"name": "w", "sigma": "3.1429E-5", "title": "argument of perihelion", "value": "201.4522666472132", "units": "deg", "label": "peri"}, {"units": "deg", "value": "8.011498937126143", "title": "mean anomaly", "sigma": "9.6441E-6", "name": "ma", "label": "M"}, {"sigma": "3.6325E-5", "name": "tp", "units": "TDB", "value": "2461170.198727723029", "title": "time of perihelion passage", "label": "tp"}, {"label": "period", "value": "1361.600133173411", "title": "sidereal orbital period", "units": "d", "sigma": "6.8482E-6", "name": "per"}, {"label": "n", "sigma": "1.3298E-9", "name": "n", "title": "mean motion", "value": ".2643948037526748", "units": "deg/d"}, {"label": "Q", "title": "aphelion distance", "value": "3.814249227922471", "units": "au", "sigma": "1.2789E-8", "name": "ad"}], "epoch": "2461200.5"}